GLOBALSTAR M001         
1 25162U 98008A   24181.58154727 -.00000066  00000+0  23331-3 0  9993
2 25162  52.0040 279.4942 0001756 206.5835 166.8402 12.38187138200038
GLOBALSTAR M004         
1 25163U 98008B   24181.61119821 -.00000063  00000+0  22394-3 0  9999
2 25163  52.0011  49.7516 0002256 219.5734 157.9040 12.63363464217123
GLOBALSTAR M002         
1 25164U 98008C   24181.84533004 -.00000070  00000+0  12107-3 0  9997
2 25164  52.0033  43.6375 0000649 191.9982 168.0823 11.61502752143195
GLOBALSTAR M003         
1 25165U 98008D   24181.18921866  .00000036  00000+0  13400-2 0  9999
2 25165  51.9900  66.1838 0007572 306.7916 228.4378 12.12014500190415
GLOBALSTAR M014         
1 25306U 98023A   24181.63745315 -.00000037  00000+0  75836-3 0  9990
2 25306  51.9864 334.7954 0001607  89.1713 353.4992 11.65469288150066
GLOBALSTAR M006         
1 25307U 98023B   24181.47155591 -.00000130  00000+0 -11160-2 0  9998
2 25307  51.9967  14.5054 0003731 176.8518 191.8290 11.58163216175967
GLOBALSTAR M015         
1 25308U 98023C   24181.52883395 -.00000137  00000+0 -14464-2 0  9992
2 25308  51.9823  96.6688 0012133 168.1397   3.2053 11.48852251153544
GLOBALSTAR M008         
1 25309U 98023D   24181.61027184 -.00000067  00000+0  23258-3 0  9992
2 25309  51.9949 140.2436 0002306 147.1844  24.2934 12.36044834194247
